IXPE                    
1 49954U 21121A   24068.91667824  .00008088  00000+0  61825-3 0  9999
2 49954   0.2306  56.8863 0009697 233.7639 279.0228 14.96775903  5347
